     2.11           N: GPS NAV DATA                         RINEX VERSION / TYPE
teqc  2019Feb25                         20221121 12:28:26UTCPGM / RUN BY / DATE
OSX ker:10.11.6|Core i5|gcc 4.3 -m64|OSX ker:10.10+|=+      COMMENT
    1.1176D-08  0.0000D+00 -5.9605D-08  0.0000D+00          ION ALPHA
    9.0112D+04  0.0000D+00 -1.9661D+05  0.0000D+00          ION BETA
    3.725290298462D-09 3.552713678801D-15    61440     1554 DELTA-UTC: A0,A1,T,W
                                                            END OF HEADER
 3 09 10 17  4  0  0.0 4.616882652044D-04 5.229594535194D-12 0.000000000000D+00
    1.900000000000D+01-5.690625000000D+01 5.410225357602D-09 8.159202199522D-01
   -2.918764948845D-06 1.258839073125D-02 8.683651685715D-06 5.153661148071D+03
    5.328000000000D+05-1.415610313416D-07 2.214321148370D+00 6.891787052155D-08
    9.264894804171D-01 1.968125000000D+02 9.540535487998D-01-8.679290098699D-09
   -7.146726261264D-10 1.000000000000D+00 1.553000000000D+03 0.000000000000D+00
    2.000000000000D+00 0.000000000000D+00-4.656612873077D-09 1.900000000000D+01
    5.286480000000D+05 4.000000000000D+00
18 09 10 17  4  0  0.0 2.074148505926D-05 2.842170943040D-12 0.000000000000D+00
    5.800000000000D+01 2.546875000000D+01 5.465584806403D-09-2.783664027397D+00
    1.259148120880D-06 1.092602242716D-02 9.927898645401D-07 5.153635782242D+03
    5.328000000000D+05 1.024454832077D-07-1.831443393529D+00-2.551823854446D-07
    9.400744098040D-01 3.499375000000D+02-2.366373817974D+00-8.730720812423D-09
    1.635782422618D-10 1.000000000000D+00 1.553000000000D+03 0.000000000000D+00
    2.000000000000D+00 0.000000000000D+00-1.071020960808D-08 5.800000000000D+01
    5.290080000000D+05 4.000000000000D+00
28 09 10 17  4  0  0.0-2.588005736470D-05 1.136868377216D-13 0.000000000000D+00
    8.100000000000D+01 2.009375000000D+01 4.701624412957D-09 2.722361672674D+00
    8.940696716309D-07 1.517635630444D-02 4.008412361145D-06 5.153644107819D+03
    5.328000000000D+05 9.499490261078D-08 1.315155844103D+00-1.359730958939D-07
    9.675374212686D-01 3.023437500000D+02-2.014428807606D+00-8.029620180196D-09
    1.371485699313D-10 1.000000000000D+00 1.553000000000D+03 0.000000000000D+00
    4.000000000000D+00 0.000000000000D+00-1.024454832077D-08 8.100000000000D+01
    5.316780000000D+05 4.000000000000D+00
19 09 10 17  4  0  0.0 5.938578397036D-06-1.818989403546D-12 0.000000000000D+00
    2.000000000000D+01-4.278125000000D+01 4.434470427779D-09 1.486378573199D+00
   -2.173706889153D-06 5.869736894965D-03 1.070089638233D-05 5.153667097092D+03
    5.328000000000D+05 5.401670932770D-08 2.405950505039D+00 8.754432201386D-08
    9.576250599447D-01 1.700000000000D+02-2.244306352025D-01-7.972474942725D-09
   -6.435982370213D-10 1.000000000000D+00 1.553000000000D+03 0.000000000000D+00
    2.000000000000D+00 0.000000000000D+00-1.490116119385D-08 2.000000000000D+01
    5.317080000000D+05 4.000000000000D+00
27 09 10 17  4  0  0.0 9.199650958180D-05 3.410605131648D-12 0.000000000000D+00
    1.400000000000D+01-2.218750000000D+00 3.909448558510D-09 1.745977838025D+00
   -5.476176738739D-07 2.143086167052D-02 1.224316656590D-05 5.153733266830D+03
    5.328000000000D+05 2.663582563400D-07 1.800166193291D-01-4.582107067108D-07
    9.763907118266D-01 1.465625000000D+02-1.533530304207D+00-7.515670200688D-09
    2.453673633927D-10 1.000000000000D+00 1.553000000000D+03 0.000000000000D+00
    2.000000000000D+00 0.000000000000D+00-4.190951585770D-09 1.400000000000D+01
    5.319480000000D+05 4.000000000000D+00
28 09 10 17  3 59 44.0-2.587446942925D-05 1.136868377216D-13 0.000000000000D+00
    0.000000000000D+00 2.009375000000D+01 4.701981570691D-09 2.720027877999D+00
    8.940696716309D-07 1.517635304481D-02 4.008412361145D-06 5.153644107819D+03
    5.327840000000D+05 9.499490261078D-08 1.315155966988D+00-1.359730958939D-07
    9.675374139540D-01 3.023437500000D+02-2.014428771033D+00-8.029620180196D-09
    1.371485699313D-10 1.000000000000D+00 1.553000000000D+03 0.000000000000D+00
    2.000000000000D+00 0.000000000000D+00-1.024454832077D-08 0.000000000000D+00
    5.322360000000D+05 4.000000000000D+00
 5 09 10 17  6  0  0.0-6.368663161993D-05 8.640199666843D-12 0.000000000000D+00
    1.800000000000D+01 4.390625000000D+01 5.072711298787D-09-2.770885376532D+00
    2.279877662659D-06 1.546737505123D-03 1.929700374603D-06 5.153572807312D+03
    5.400000000000D+05-6.891787052155D-08-1.861794301834D+00-9.313225746155D-09
    9.609945040670D-01 3.461250000000D+02 2.184243529253D-01-8.613930233341D-09
    2.678683006471D-10 1.000000000000D+00 1.553000000000D+03 0.000000000000D+00
    2.000000000000D+00 0.000000000000D+00-9.313225746155D-09 1.800000000000D+01
    5.328180000000D+05 4.000000000000D+00
10 09 10 17  6  0  0.0-2.607470378280D-05-9.094947017729D-13 0.000000000000D+00
    7.700000000000D+01 3.846875000000D+01 5.140571268284D-09-3.047274032818D+00
    1.870095729828D-06 8.629275835119D-03 1.648440957069D-06 5.153382638931D+03
    5.400000000000D+05-9.872019290924D-08-1.834776511932D+00-1.229345798492D-07
    9.560553898074D-01 3.490625000000D+02 6.161936351211D-01-8.573571409377D-09
    2.425101015191D-10 1.000000000000D+00 1.553000000000D+03 0.000000000000D+00
    2.000000000000D+00 0.000000000000D+00-2.793967723846D-09 7.700000000000D+01
    5.328180000000D+05 4.000000000000D+00
21 09 10 17  6  0  0.0-1.560384407640D-05-2.273736754432D-12 0.000000000000D+00
    7.500000000000D+01 9.381250000000D+01 4.895918220360D-09-5.197198010101D-01
    5.131587386131D-06 1.559856440872D-02 1.046434044838D-05 5.153755180359D+03
    5.400000000000D+05 1.806765794754D-07-2.889473654633D+00 2.179294824600D-07
    9.339268696200D-01 1.648437500000D+02-2.552503582820D+00-8.465709773650D-09
    2.978695503195D-10 1.000000000000D+00 1.553000000000D+03 0.000000000000D+00
    2.000000000000D+00 0.000000000000D+00-1.210719347000D-08 7.500000000000D+01
    5.328180000000D+05 4.000000000000D+00
15 09 10 17  6  0  0.0-3.202250227332D-04-3.410605131648D-13 0.000000000000D+00
    9.600000000000D+01-1.282500000000D+02 4.803057209469D-09 2.925130661902D+00
   -6.517395377159D-06 1.838197000325D-03 7.504597306252D-06 5.153675846100D+03
    5.400000000000D+05-9.313225746155D-09-8.258867721505D-01 3.911554813385D-08
    9.554503444448D-01 2.313750000000D+02-5.037736428458D-01-8.281773540539D-09
   -3.850160374634D-10 1.000000000000D+00 1.553000000000D+03 0.000000000000D+00
    2.000000000000D+00 0.000000000000D+00-9.778887033463D-09 9.600000000000D+01
    5.328180000000D+05 4.000000000000D+00
18 09 10 17  6  0  0.0 2.076197415590D-05 2.842170943040D-12 0.000000000000D+00
    5.900000000000D+01 2.928125000000D+01 5.404867991589D-09-1.733461339154D+00
    1.538544893265D-06 1.092574989889D-02 8.139759302139D-07 5.153635978699D+03
    5.400000000000D+05 1.620501279831D-07-1.831507223570D+00-2.793967723846D-08
    9.400763437817D-01 3.484687500000D+02-2.366365638799D+00-8.744649964057D-09
    3.339424814733D-10 1.000000000000D+00 1.553000000000D+03 0.000000000000D+00
    2.000000000000D+00 0.000000000000D+00-1.071020960808D-08 5.900000000000D+01
    5.328180000000D+05 4.000000000000D+00
 3 09 10 17  6  0  0.0 4.617259837687D-04 5.229594535194D-12 0.000000000000D+00
    2.000000000000D+01-6.609375000000D+01 5.318435819914D-09 1.866012055578D+00
   -3.606081008911D-06 1.258842123207D-02 8.540228009224D-06 5.153663551331D+03
    5.400000000000D+05-2.030283212662D-07 2.214258282391D+00-1.769512891769D-07
    9.264852218626D-01 1.997812500000D+02 9.541565660280D-01-8.499282600664D-09
   -6.107397254753D-10 1.000000000000D+00 1.553000000000D+03 0.000000000000D+00
    2.000000000000D+00 0.000000000000D+00-4.656612873077D-09 2.000000000000D+01
    5.328180000000D+05 4.000000000000D+00
 6 09 10 17  6  0  0.0 2.536717802286D-04 4.092726157978D-12 0.000000000000D+00
    3.200000000000D+01-5.437500000000D+01 5.076640033863D-09-2.098899747051D+00
   -2.721324563026D-06 5.788449780084D-03 8.968636393547D-06 5.153700109482D+03
    5.400000000000D+05 4.656612873077D-08 2.283038100032D+00 1.750886440277D-07
    9.339770433213D-01 1.908437500000D+02-1.229483566571D+00-8.313560578882D-09
   -5.853815263474D-10 1.000000000000D+00 1.553000000000D+03 0.000000000000D+00
    2.000000000000D+00 0.000000000000D+00-5.122274160385D-09 3.200000000000D+01
    5.328180000000D+05 4.000000000000D+00
27 09 10 17  6  0  0.0 9.202118963003D-05 3.410605131648D-12 0.000000000000D+00
    2.400000000000D+01-2.750000000000D+00 3.966236638248D-09 2.796146468072D+00
   -4.097819328308D-08 2.143037074711D-02 1.258030533791D-05 5.153733039856D+03
    5.400000000000D+05 4.041939973831D-07 1.799637158226D-01-1.750886440277D-07
    9.763927394310D-01 1.351875000000D+02-1.533557804141D+00-7.376021526618D-09
    2.285809498855D-10 1.000000000000D+00 1.553000000000D+03 0.000000000000D+00
    2.000000000000D+00 0.000000000000D+00-4.190951585770D-09 2.400000000000D+01
    5.328180000000D+05 4.000000000000D+00
19 09 10 17  6  0  0.0 5.926005542278D-06-1.818989403546D-12 0.000000000000D+00
    2.100000000000D+01-4.037500000000D+01 4.465185992919D-09 2.536684106046D+00
   -2.095475792885D-06 5.870069260709D-03 1.051649451256D-05 5.153665636063D+03
    5.400000000000D+05-2.048909664154D-08 2.405892964082D+00 9.313225746155D-08
    9.576205322133D-01 1.751875000000D+02-2.245511401535D-01-7.946402428129D-09
   -6.082396213359D-10 1.000000000000D+00 1.553000000000D+03 0.000000000000D+00
    2.000000000000D+00 0.000000000000D+00-1.490116119385D-08 2.100000000000D+01
    5.328180000000D+05 4.000000000000D+00
